{
  "type": "FeatureCollection",
  "features": [
    {
      "type": "Feature",
      "properties": {
        "norad_id": 40938,
        "name": "BEIDOU-3S IGSO-2S (C56)",
        "group": "gnss",
        "lat": 24.263537601938605,
        "lon": 58.28501578113022,
        "alt_km": 35591.6183070984,
        "timestamp": "2025-12-22T14:45:57.644768+00:00",
        "meta_object_name": "BEIDOU-3S IGSO-2S (C56)",
        "meta_object_id": "2015-053A",
        "meta_epoch": "2025-12-21T17:04:25.482720",
        "meta_mean_motion": 1.00268185,
        "meta_eccentricity": 0.00606025,
        "meta_inclination": 49.4967,
        "meta_ra_of_asc_node": 260.9003,
        "meta_arg_of_pericenter": 188.6932,
        "meta_mean_anomaly": 352.8862,
        "meta_ephemeris_type": 0,
        "meta_classification_type": "U",
        "meta_norad_cat_id": 40938,
        "meta_element_set_no": 999,
        "meta_rev_at_epoch": 3757,
        "meta_bstar": 0,
        "meta_mean_motion_dot": -1.05e-06,
        "meta_mean_motion_ddot": 0,
        "tle_line1": "1 40938U 15053A   25355.71140605 -.00000105  00000+0  00000+0 0  9997",
        "tle_line2": "2 40938  49.4967 260.9003 0060602 188.6932 352.8862  1.00268185 37573"
      },
      "geometry": {
        "type": "Point",
        "coordinates": [
          58.28501578113022,
          24.263537601938605
        ]
      }
    },
    {
      "type": "Feature",
      "properties": {
        "norad_id": 41019,
        "name": "GPS BIIF-11 (PRN 10)",
        "group": "gnss",
        "lat": -46.01033784393672,
        "lon": -99.7547456415453,
        "alt_km": 19895.24746994768,
        "timestamp": "2025-12-22T14:45:57.644782+00:00",
        "meta_object_name": "GPS BIIF-11 (PRN 10)",
        "meta_object_id": "2015-062A",
        "meta_epoch": "2025-12-20T06:55:31.863072",
        "meta_mean_motion": 2.00567218,
        "meta_eccentricity": 0.0111019,
        "meta_inclination": 56.8376,
        "meta_ra_of_asc_node": 37.7103,
        "meta_arg_of_pericenter": 230.1421,
        "meta_mean_anomaly": 128.9419,
        "meta_ephemeris_type": 0,
        "meta_classification_type": "U",
        "meta_norad_cat_id": 41019,
        "meta_element_set_no": 999,
        "meta_rev_at_epoch": 7424,
        "meta_bstar": 0,
        "meta_mean_motion_dot": -5.7e-07,
        "meta_mean_motion_ddot": 0,
        "tle_line1": "1 41019U 15062A   25354.28856323 -.00000057  00000+0  00000+0 0  9996",
        "tle_line2": "2 41019  56.8376  37.7103 0111019 230.1421 128.9419  2.00567218 74241"
      },
      "geometry": {
        "type": "Point",
        "coordinates": [
          -99.7547456415453,
          -46.01033784393672
        ]
      }
    },
    {
      "type": "Feature",
      "properties": {
        "norad_id": 41028,
        "name": "GSAT-15 (GAGAN/PRN 139)",
        "group": "gnss",
        "lat": 0.023365194074941077,
        "lon": 46.41524716372252,
        "alt_km": 35795.661336467514,
        "timestamp": "2025-12-22T14:45:57.644796+00:00",
        "meta_object_name": "GSAT-15 (GAGAN/PRN 139)",
        "meta_object_id": "2015-065A",
        "meta_epoch": "2025-12-22T03:20:19.582656",
        "meta_mean_motion": 1.00272616,
        "meta_eccentricity": 0.00023533,
        "meta_inclination": 0.0258,
        "meta_ra_of_asc_node": 273.1374,
        "meta_arg_of_pericenter": 323.6207,
        "meta_mean_anomaly": 357.7802,
        "meta_ephemeris_type": 0,
        "meta_classification_type": "U",
        "meta_norad_cat_id": 41028,
        "meta_element_set_no": 999,
        "meta_rev_at_epoch": 3702,
        "meta_bstar": 0,
        "meta_mean_motion_dot": -2.36e-06,
        "meta_mean_motion_ddot": 0,
        "tle_line1": "1 41028U 15065A   25356.13911554 -.00000236  00000+0  00000+0 0  9992",
        "tle_line2": "2 41028   0.0258 273.1374 0002353 323.6207 357.7802  1.00272616 37024"
      },
      "geometry": {
        "type": "Point",
        "coordinates": [
          46.41524716372252,
          0.023365194074941077
        ]
      }
    },
    {
      "type": "Feature",
      "properties": {
        "norad_id": 41174,
        "name": "GSAT0209 (GALILEO 12)",
        "group": "gnss",
        "lat": 55.402621426789736,
        "lon": -172.9913966681664,
        "alt_km": 23216.78531259293,
        "timestamp": "2025-12-22T14:45:57.644808+00:00",
        "meta_object_name": "GSAT0209 (GALILEO 12)",
        "meta_object_id": "2015-079A",
        "meta_epoch": "2025-12-20T17:12:54.927360",
        "meta_mean_motion": 1.70474584,
        "meta_eccentricity": 0.00024263,
        "meta_inclination": 55.7172,
        "meta_ra_of_asc_node": 106.1622,
        "meta_arg_of_pericenter": 346.435,
        "meta_mean_anomaly": 13.5264,
        "meta_ephemeris_type": 0,
        "meta_classification_type": "U",
        "meta_norad_cat_id": 41174,
        "meta_element_set_no": 999,
        "meta_rev_at_epoch": 6173,
        "meta_bstar": 0,
        "meta_mean_motion_dot": 0,
        "meta_mean_motion_ddot": 0,
        "tle_line1": "1 41174U 15079A   25354.71730240  .00000000  00000+0  00000+0 0  9990",
        "tle_line2": "2 41174  55.7172 106.1622 0002426 346.4350  13.5264  1.70474584 61731"
      },
      "geometry": {
        "type": "Point",
        "coordinates": [
          -172.9913966681664,
          55.402621426789736
        ]
      }
    },
    {
      "type": "Feature",
      "properties": {
        "norad_id": 41175,
        "name": "GSAT0208 (GALILEO 11)",
        "group": "gnss",
        "lat": -39.504350701451656,
        "lon": 71.94073023162481,
        "alt_km": 23223.395247838973,
        "timestamp": "2025-12-22T14:45:57.644819+00:00",
        "meta_object_name": "GSAT0208 (GALILEO 11)",
        "meta_object_id": "2015-079B",
        "meta_epoch": "2025-12-20T08:25:16.296384",
        "meta_mean_motion": 1.70474393,
        "meta_eccentricity": 0.00018076,
        "meta_inclination": 55.7157,
        "meta_ra_of_asc_node": 106.1693,
        "meta_arg_of_pericenter": 359.1842,
        "meta_mean_anomaly": 0.7815,
        "meta_ephemeris_type": 0,
        "meta_classification_type": "U",
        "meta_norad_cat_id": 41175,
        "meta_element_set_no": 999,
        "meta_rev_at_epoch": 6214,
        "meta_bstar": 0,
        "meta_mean_motion_dot": -2e-08,
        "meta_mean_motion_ddot": 0,
        "tle_line1": "1 41175U 15079B   25354.35088306 -.00000002  00000+0  00000+0 0  9993",
        "tle_line2": "2 41175  55.7157 106.1693 0001807 359.1842   0.7815  1.70474393 62146"
      },
      "geometry": {
        "type": "Point",
        "coordinates": [
          71.94073023162481,
          -39.504350701451656
        ]
      }
    },
    {
      "type": "Feature",
      "properties": {
        "norad_id": 41241,
        "name": "IRNSS-1E",
        "group": "gnss",
        "lat": 1.2523527136689998,
        "lon": 64.27605007792882,
        "alt_km": 35877.63693537586,
        "timestamp": "2025-12-22T14:45:57.644831+00:00",
        "meta_object_name": "IRNSS-1E",
        "meta_object_id": "2016-003A",
        "meta_epoch": "2025-12-20T14:57:09.230400",
        "meta_mean_motion": 1.00270447,
        "meta_eccentricity": 0.0021619,
        "meta_inclination": 32.8427,
        "meta_ra_of_asc_node": 62.3382,
        "meta_arg_of_pericenter": 188.6599,
        "meta_mean_anomaly": 174.4859,
        "meta_ephemeris_type": 0,
        "meta_classification_type": "U",
        "meta_norad_cat_id": 41241,
        "meta_element_set_no": 999,
        "meta_rev_at_epoch": 3629,
        "meta_bstar": 0,
        "meta_mean_motion_dot": -3e-06,
        "meta_mean_motion_ddot": 0,
        "tle_line1": "1 41241U 16003A   25354.62302350 -.00000300  00000+0  00000+0 0  9994",
        "tle_line2": "2 41241  32.8427  62.3382 0021619 188.6599 174.4859  1.00270447 36292"
      },
      "geometry": {
        "type": "Point",
        "coordinates": [
          64.27605007792882,
          1.2523527136689998
        ]
      }
    },
    {
      "type": "Feature",
      "properties": {
        "norad_id": 41328,
        "name": "GPS BIIF-12 (PRN 32)",
        "group": "gnss",
        "lat": 1.329447200697638,
        "lon": -84.44728161410205,
        "alt_km": 20078.305784566102,
        "timestamp": "2025-12-22T14:45:57.644842+00:00",
        "meta_object_name": "GPS BIIF-12 (PRN 32)",
        "meta_object_id": "2016-007A",
        "meta_epoch": "2025-12-21T08:50:32.363232",
        "meta_mean_motion": 2.00560305,
        "meta_eccentricity": 0.00925842,
        "meta_inclination": 55.4109,
        "meta_ra_of_asc_node": 96.5146,
        "meta_arg_of_pericenter": 243.788,
        "meta_mean_anomaly": 115.2562,
        "meta_ephemeris_type": 0,
        "meta_classification_type": "U",
        "meta_norad_cat_id": 41328,
        "meta_element_set_no": 999,
        "meta_rev_at_epoch": 7227,
        "meta_bstar": 0,
        "meta_mean_motion_dot": -8e-08,
        "meta_mean_motion_ddot": 0,
        "tle_line1": "1 41328U 16007A   25355.36843013 -.00000008  00000+0  00000+0 0  9997",
        "tle_line2": "2 41328  55.4109  96.5146 0092584 243.7880 115.2562  2.00560305 72276"
      },
      "geometry": {
        "type": "Point",
        "coordinates": [
          -84.44728161410205,
          1.329447200697638
        ]
      }
    }
  ]
}